{"type":"FeatureCollection","features":[{"type":"Feature","id":"way/16688065","properties":{"type":"way","id":16688065,"tags":{"highway":"trunk","lanes":"4","maxspeed":"70","name":"Nicoll Highway","oneway":"yes","surface":"asphalt"},"relations":[{"role":"backward","rel":"421263","reltags":{"name":"Marina Bay Street Circuit","type":"circuit","wikidata":"Q171390","wikipedia":"en:Marina Bay Street Circuit"}}],"meta":{}},"geometry":{"type":"LineString","coordinates":[[103.8548655,1.2914505],[103.8549246,1.2915866],[103.8552936,1.2922894]]}},{"type":"Feature","id":"way/21584500","properties":{"type":"way","id":21584500,"tags":{"highway":"secondary","lanes":"4","maxspeed":"50","name":"Saint Andrew's Road","oneway":"yes","source":"Yahoo aerial images","surface":"asphalt","turn:lanes":"through|through|through|through"},"relations":[{"role":"backward","rel":"421263","reltags":{"name":"Marina Bay Street Circuit","type":"circuit","wikidata":"Q171390","wikipedia":"en:Marina Bay Street Circuit"}}],"meta":{}},"geometry":{"type":"LineString","coordinates":[[103.8515745,1.2893739],[103.8523289,1.2907304],[103.8524116,1.2908769],[103.8524294,1.2909086]]}},{"type":"Feature","id":"way/21701074","properties":{"type":"way","id":21701074,"tags":{"highway":"primary","lanes":"6","maxspeed":"50","name":"Raffles Boulevard","oneway":"yes","source":"Yahoo aerial images","surface":"asphalt","turn:lanes":"left;through|through|through|through|through|through"},"relations":[{"role":"backward","rel":"421263","reltags":{"name":"Marina Bay Street Circuit","type":"circuit","wikidata":"Q171390","wikipedia":"en:Marina Bay Street Circuit"}}],"meta":{}},"geometry":{"type":"LineString","coordinates":[[103.8559769,1.2930831],[103.8562154,1.2929484],[103.856514,1.2927809],[103.8568682,1.2925727],[103.8569856,1.2925027],[103.8570723,1.2924516]]}},{"type":"Feature","id":"way/21805129","properties":{"type":"way","id":21805129,"tags":{"highway":"primary","lanes":"2","maxspeed":"60","name":"Republic Boulevard","oneway":"yes","source":"Yahoo aerial images","surface":"asphalt","turn:lanes":"through|through"},"relations":[{"role":"backward","rel":"421263","reltags":{"name":"Marina Bay Street Circuit","type":"circuit","wikidata":"Q171390","wikipedia":"en:Marina Bay Street Circuit"}}],"meta":{}},"geometry":{"type":"LineString","coordinates":[[103.8628486,1.2915327],[103.8628898,1.2916159],[103.8629054,1.2916981],[103.8629088,1.2918067],[103.8628904,1.292052],[103.8628207,1.2924838],[103.8627941,1.292604],[103.8627184,1.2928397],[103.8625264,1.2933616]]}},{"type":"Feature","id":"way/21998987","properties":{"type":"way","id":21998987,"tags":{"highway":"trunk","lanes":"5","maxspeed":"70","name":"Esplanade Drive","oneway":"yes","source":"Yahoo aerial images","surface":"asphalt"},"relations":[{"role":"backward","rel":"421263","reltags":{"name":"Marina Bay Street Circuit","type":"circuit","wikidata":"Q171390","wikipedia":"en:Marina Bay Street Circuit"}}],"meta":{}},"geometry":{"type":"LineString","coordinates":[[103.8549222,1.2910827],[103.8548828,1.2909735],[103.8547704,1.2906604],[103.8546677,1.2903412],[103.8546242,1.2901772],[103.8546059,1.2901081],[103.8545929,1.2900434],[103.8545847,1.2900031],[103.8545152,1.289661],[103.8545091,1.2896309]]}},{"type":"Feature","id":"way/22002574","properties":{"type":"way","id":22002574,"tags":{"foot":"no","highway":"secondary","lanes":"2","maxspeed":"50","name":"Fullerton Road","oneway":"yes","source":"Yahoo aerial images","surface":"asphalt"},"relations":[{"role":"backward","rel":"421263","reltags":{"name":"Marina Bay Street Circuit","type":"circuit","wikidata":"Q171390","wikipedia":"en:Marina Bay Street Circuit"}}],"meta":{}},"geometry":{"type":"LineString","coordinates":[[103.8538728,1.286314],[103.8537113,1.2863939]]}},{"type":"Feature","id":"way/23132147","properties":{"type":"way","id":23132147,"tags":{"highway":"secondary","lanes":"1","maxspeed":"50","name":"Saint Andrew's Road","oneway":"yes","surface":"asphalt"},"relations":[{"role":"backward","rel":"421263","reltags":{"name":"Marina Bay Street Circuit","type":"circuit","wikidata":"Q171390","wikipedia":"en:Marina Bay Street Circuit"}}],"meta":{}},"geometry":{"type":"LineString","coordinates":[[103.8523418,1.2884014],[103.8522876,1.288464],[103.8522399,1.2885016],[103.8520299,1.2886465],[103.8519961,1.2886699]]}},{"type":"Feature","id":"way/29377119","properties":{"type":"way","id":29377119,"tags":{"bridge":"yes","bridge:name":"Anderson Bridge","highway":"secondary","image":"https://images.mapillary.com/4kwZ6YR3RVToi_vUG8YcJg/thumb-2048.jpg","lanes":"2","lanes:backward":"1","lanes:forward":"1","layer":"1","mapillary":"https://www.mapillary.com/map/im/4kwZ6YR3RVToi_vUG8YcJg","maxspeed":"50","name":"Fullerton Road","oneway":"no","source":"Yahoo aerial images","surface":"asphalt","turn:lanes:backward":"through","turn:lanes:forward":"through"},"relations":[{"role":"","rel":"421263","reltags":{"name":"Marina Bay Street Circuit","type":"circuit","wikidata":"Q171390","wikipedia":"en:Marina Bay Street Circuit"}}],"meta":{}},"geometry":{"type":"LineString","coordinates":[[103.8527898,1.2875108],[103.8532395,1.2871317]]}},{"type":"Feature","id":"way/35037536","properties":{"type":"way","id":35037536,"tags":{"bridge":"yes","bridge:name":"Esplanade Bridge","highway":"trunk","lanes":"4","layer":"1","maxspeed":"70","name":"Esplanade Drive","oneway":"yes","source":"Yahoo aerial images","start_date":"1997","surface":"asphalt","turn:lanes":"through|through|through|right"},"relations":[{"role":"backward","rel":"421263","reltags":{"name":"Marina Bay Street Circuit","type":"circuit","wikidata":"Q171390","wikipedia":"en:Marina Bay Street Circuit"}}],"meta":{}},"geometry":{"type":"LineString","coordinates":[[103.8544324,1.2892532],[103.8541799,1.2879421],[103.8539338,1.2866643]]}},{"type":"Feature","id":"way/35037537","properties":{"type":"way","id":35037537,"tags":{"highway":"trunk","lanes":"4","maxspeed":"70","name":"Esplanade Drive","oneway":"yes","sidewalk":"left","source":"Yahoo aerial images","surface":"asphalt","turn:lanes":"through|through|through|through;right"},"relations":[{"role":"backward","rel":"421263","reltags":{"name":"Marina Bay Street Circuit","type":"circuit","wikidata":"Q171390","wikipedia":"en:Marina Bay Street Circuit"}}],"meta":{}},"geometry":{"type":"LineString","coordinates":[[103.8539338,1.2866643],[103.8539121,1.2865277],[103.8538963,1.2864287]]}},{"type":"Feature","id":"way/51511339","properties":{"type":"way","id":51511339,"tags":{"foot":"no","highway":"primary","lanes":"4","maxspeed":"50","name":"Stamford Road","oneway":"yes","source":"GPS & Yahoo aerial images","surface":"asphalt"},"relations":[{"role":"","rel":"421263","reltags":{"name":"Marina Bay Street Circuit","type":"circuit","wikidata":"Q171390","wikipedia":"en:Marina Bay Street Circuit"}}],"meta":{}},"geometry":{"type":"LineString","coordinates":[[103.8548655,1.2914505],[103.8546524,1.2916561]]}},{"type":"Feature","id":"way/51511352","properties":{"type":"way","id":51511352,"tags":{"foot":"no","highway":"primary","lanes":"6","maxspeed":"50","name":"Bras Basah Road","oneway":"yes","source":"GPS & Yahoo aerial images","surface":"asphalt","turn:lanes":"through|through|through|through;right|right|right"},"relations":[{"role":"backward","rel":"421263","reltags":{"name":"Marina Bay Street Circuit","type":"circuit","wikidata":"Q171390","wikipedia":"en:Marina Bay Street Circuit"}}],"meta":{}},"geometry":{"type":"LineString","coordinates":[[103.8558226,1.293172],[103.8559769,1.2930831]]}},{"type":"Feature","id":"way/75067163","properties":{"type":"way","id":75067163,"tags":{"busway:left":"lane","highway":"primary","lanes":"5","lanes:bus":"1","lanes:bus:conditional":"1 @ (Mo-Sa 07:30-23:00)","maxspeed":"50","name":"Raffles Boulevard","oneway":"yes","source":"Yahoo aerial images","surface":"asphalt","turn:lanes":"through|through|through|through|through"},"relations":[{"role":"backward","rel":"421263","reltags":{"name":"Marina Bay Street Circuit","type":"circuit","wikidata":"Q171390","wikipedia":"en:Marina Bay Street Circuit"}}],"meta":{}},"geometry":{"type":"LineString","coordinates":[[103.8572319,1.2923557],[103.8576827,1.292102],[103.8577256,1.2920774]]}},{"type":"Feature","id":"way/100484287","properties":{"type":"way","id":100484287,"tags":{"access":"private","highway":"raceway","name":"Pit Lane","oneway":"yes","raceway":"pitlane","surface":"asphalt"},"relations":[{"role":"pitlane","rel":"421263","reltags":{"name":"Marina Bay Street Circuit","type":"circuit","wikidata":"Q171390","wikipedia":"en:Marina Bay Street Circuit"}}],"meta":{}},"geometry":{"type":"LineString","coordinates":[[103.8628407,1.2887014],[103.8632536,1.2887279],[103.8638126,1.2887572],[103.8638848,1.2887674],[103.8639411,1.2887904],[103.8639727,1.2888105],[103.8640004,1.2888378],[103.8640617,1.2889283],[103.8643361,1.2893477],[103.8643641,1.2894189],[103.864381,1.2895198],[103.8643762,1.2896475],[103.8639366,1.2925836],[103.8639114,1.2927527],[103.863905,1.2928552],[103.8639016,1.2929638],[103.8639285,1.2936526],[103.8639266,1.2937142],[103.863917,1.2937973],[103.8638632,1.2940083],[103.8638425,1.294069],[103.8638137,1.2941394],[103.8637712,1.2941844],[103.8637052,1.2942283],[103.8635941,1.2942744],[103.863457,1.2943066],[103.8633693,1.2943388],[103.863276,1.2943863],[103.8631437,1.2944915]]}},{"type":"Feature","id":"way/152783801","properties":{"type":"way","id":152783801,"tags":{"highway":"primary","lanes":"3","maxspeed":"50","name":"Raffles Avenue","note":"Part of it estimated ???","oneway":"yes","raceway":"sometimes","source":"Yahoo aerial images","surface":"asphalt","turn:lanes":"through|through|through;right"},"relations":[{"role":"backward","rel":"421263","reltags":{"name":"Marina Bay Street Circuit","type":"circuit","wikidata":"Q171390","wikipedia":"en:Marina Bay Street Circuit"}}],"meta":{}},"geometry":{"type":"LineString","coordinates":[[103.8610047,1.2895654],[103.8609024,1.2895727]]}},{"type":"Feature","id":"way/155907160","properties":{"type":"way","id":155907160,"tags":{"highway":"secondary","lanes":"4","maxspeed":"50","name":"Saint Andrew's Road","oneway":"yes","source":"Yahoo aerial images","surface":"asphalt"},"relations":[{"role":"backward","rel":"421263","reltags":{"name":"Marina Bay Street Circuit","type":"circuit","wikidata":"Q171390","wikipedia":"en:Marina Bay Street Circuit"}}],"meta":{}},"geometry":{"type":"LineString","coordinates":[[103.8524294,1.2909086],[103.8525268,1.2910839]]}},{"type":"Feature","id":"way/156457347","properties":{"type":"way","id":156457347,"tags":{"highway":"primary","lanes":"5","maxspeed":"50","name":"Stamford Road","oneway":"yes","source":"GPS & Yahoo aerial images","surface":"asphalt"},"relations":[{"role":"","rel":"421263","reltags":{"name":"Marina Bay Street Circuit","type":"circuit","wikidata":"Q171390","wikipedia":"en:Marina Bay Street Circuit"}}],"meta":{}},"geometry":{"type":"LineString","coordinates":[[103.8546524,1.2916561],[103.854467,1.2918487]]}},{"type":"Feature","id":"way/173779732","properties":{"type":"way","id":173779732,"tags":{"highway":"trunk","lanes":"4","maxspeed":"70","name":"Esplanade Drive","oneway":"yes","sidewalk":"left","source":"Yahoo aerial images","surface":"asphalt"},"relations":[{"role":"backward","rel":"421263","reltags":{"name":"Marina Bay Street Circuit","type":"circuit","wikidata":"Q171390","wikipedia":"en:Marina Bay Street Circuit"}}],"meta":{}},"geometry":{"type":"LineString","coordinates":[[103.8538963,1.2864287],[103.8538728,1.286314]]}},{"type":"Feature","id":"way/173779754","properties":{"type":"way","id":173779754,"tags":{"highway":"secondary","lanes":"4","maxspeed":"50","name":"Saint Andrew's Road","oneway":"yes","source":"Yahoo aerial images","surface":"asphalt"},"relations":[{"role":"backward","rel":"421263","reltags":{"name":"Marina Bay Street Circuit","type":"circuit","wikidata":"Q171390","wikipedia":"en:Marina Bay Street Circuit"}}],"meta":{}},"geometry":{"type":"LineString","coordinates":[[103.853252,1.2923897],[103.8533954,1.2925175],[103.853499,1.2925629],[103.8536185,1.2926038]]}},{"type":"Feature","id":"way/173791995","properties":{"type":"way","id":173791995,"tags":{"busway:left":"lane","highway":"primary","lanes":"3","lanes:bus":"1","lanes:bus:conditional":"1 @ (Mo-Sa 07:30-23:00)","maxspeed":"50","name":"Raffles Avenue","note":"Part of it estimated ???","oneway":"yes","raceway":"sometimes","source":"Yahoo aerial images","surface":"asphalt"},"relations":[{"role":"backward","rel":"421263","reltags":{"name":"Marina Bay Street Circuit","type":"circuit","wikidata":"Q171390","wikipedia":"en:Marina Bay Street Circuit"}}],"meta":{}},"geometry":{"type":"LineString","coordinates":[[103.8609024,1.2895727],[103.8608353,1.2895775],[103.8606117,1.2895936]]}},{"type":"Feature","id":"way/173791997","properties":{"type":"way","id":173791997,"tags":{"busway:left":"lane","highway":"primary","lanes":"5","lanes:bus":"1","lanes:bus:conditional":"1 @ (Mo-Sa 07:30-23:00)","maxspeed":"50","name":"Raffles Boulevard","oneway":"yes","source":"Yahoo aerial images","surface":"asphalt","turn:lanes":"through|through|through|through|through"},"relations":[{"role":"backward","rel":"421263","reltags":{"name":"Marina Bay Street Circuit","type":"circuit","wikidata":"Q171390","wikipedia":"en:Marina Bay Street Circuit"}}],"meta":{}},"geometry":{"type":"LineString","coordinates":[[103.8577256,1.2920774],[103.8578775,1.2919894]]}},{"type":"Feature","id":"way/174262763","properties":{"type":"way","id":174262763,"tags":{"foot":"yes","highway":"primary","lanes":"4","maxspeed":"50","name":"Raffles Boulevard","oneway":"yes","source":"Yahoo aerial images","surface":"asphalt","turn:lanes":"left|left|right|right"},"relations":[{"role":"backward","rel":"421263","reltags":{"name":"Marina Bay Street Circuit","type":"circuit","wikidata":"Q171390","wikipedia":"en:Marina Bay Street Circuit"}}],"meta":{}},"geometry":{"type":"LineString","coordinates":[[103.8620486,1.2913099],[103.862347,1.2912552]]}},{"type":"Feature","id":"way/176298699","properties":{"type":"way","id":176298699,"tags":{"foot":"yes","highway":"primary","lanes":"5","maxspeed":"50","name":"Raffles Boulevard","oneway":"yes","source":"Yahoo aerial images","surface":"asphalt","turn:lanes":"through|through|through|through;right|right"},"relations":[{"role":"backward","rel":"421263","reltags":{"name":"Marina Bay Street Circuit","type":"circuit","wikidata":"Q171390","wikipedia":"en:Marina Bay Street Circuit"}}],"meta":{}},"geometry":{"type":"LineString","coordinates":[[103.8608965,1.2913579],[103.8610007,1.2913536]]}},{"type":"Feature","id":"way/297234496","properties":{"type":"way","id":297234496,"tags":{"highway":"secondary","lanes":"2","maxspeed":"50","name":"Fullerton Road","oneway":"yes","source":"Yahoo aerial images","surface":"asphalt"},"relations":[{"role":"backward","rel":"421263","reltags":{"name":"Marina Bay Street Circuit","type":"circuit","wikidata":"Q171390","wikipedia":"en:Marina Bay Street Circuit"}}],"meta":{}},"geometry":{"type":"LineString","coordinates":[[103.8537113,1.2863939],[103.8536294,1.2864949],[103.8534839,1.2866878],[103.8533852,1.2868379],[103.8533037,1.2869534],[103.8532395,1.2871317]]}},{"type":"Feature","id":"way/297234502","properties":{"type":"way","id":297234502,"tags":{"access":"private","highway":"raceway","name":"F1 Marina-Bay-Street-Circuit","oneway":"yes","tunnel":"building_passage"},"relations":[{"role":"","rel":"421263","reltags":{"name":"Marina Bay Street Circuit","type":"circuit","wikidata":"Q171390","wikipedia":"en:Marina Bay Street Circuit"}}],"meta":{}},"geometry":{"type":"LineString","coordinates":[[103.8598106,1.2889284],[103.8598616,1.2893772]]}},{"type":"Feature","id":"way/303311924","properties":{"type":"way","id":303311924,"tags":{"access":"private","highway":"raceway","name":"Marina Bay Street Circuit","oneway":"yes","sport":"motor","surface":"asphalt"},"relations":[{"role":"backward","rel":"421263","reltags":{"name":"Marina Bay Street Circuit","type":"circuit","wikidata":"Q171390","wikipedia":"en:Marina Bay Street Circuit"}}],"meta":{}},"geometry":{"type":"LineString","coordinates":[[103.8611245,1.2895568],[103.8612069,1.2894944],[103.8612622,1.2894373],[103.861277,1.2893749],[103.861277,1.2892211],[103.8612786,1.2891389],[103.8612981,1.28906],[103.8613328,1.2889754],[103.8613893,1.2889054],[103.8614754,1.2888544],[103.861576,1.2888304],[103.8618303,1.2888019],[103.8619413,1.2887895]]}},{"type":"Feature","id":"way/303311925","properties":{"type":"way","id":303311925,"tags":{"access":"private","highway":"raceway","name":"F1 Marina Bay Street Circuit","oneway":"yes","raceway":"pitlane"},"relations":[{"role":"","rel":"421263","reltags":{"name":"Marina Bay Street Circuit","type":"circuit","wikidata":"Q171390","wikipedia":"en:Marina Bay Street Circuit"}}],"meta":{}},"geometry":{"type":"LineString","coordinates":[[103.8598616,1.2893772],[103.8598897,1.2894853],[103.8598983,1.2895339],[103.8599222,1.2895834],[103.8599761,1.289621],[103.860338,1.289644]]}},{"type":"Feature","id":"way/303311926","properties":{"type":"way","id":303311926,"tags":{"access":"private","highway":"raceway","name":"Marina Bay Street Circuit","oneway":"yes","sport":"motor"},"relations":[{"role":"","rel":"421263","reltags":{"name":"Marina Bay Street Circuit","type":"circuit","wikidata":"Q171390","wikipedia":"en:Marina Bay Street Circuit"}}],"meta":{}},"geometry":{"type":"LineString","coordinates":[[103.8575748,1.2897889],[103.8576863,1.2897593],[103.857727,1.2897482],[103.8577444,1.2897382],[103.8577675,1.2896964],[103.8577602,1.289456],[103.8577633,1.2892229],[103.8577806,1.2891442],[103.8578233,1.2890692],[103.8579051,1.2889862],[103.8579942,1.2889323],[103.8580825,1.2889066],[103.8597112,1.2888043],[103.8597645,1.2888135],[103.8598009,1.2888395],[103.8598106,1.2889284]]}},{"type":"Feature","id":"way/303314681","properties":{"type":"way","id":303314681,"tags":{"busway:left":"lane","highway":"primary","lanes":"4","lanes:bus":"1","lanes:bus:conditional":"1 @ (Mo-Sa 07:30-23:00)","maxspeed":"50","name":"Raffles Avenue","note":"Part of it estimated ???","oneway":"yes","raceway":"sometimes","source":"Yahoo aerial images","surface":"asphalt","turn:lanes":"left;through|through|through|through"},"relations":[{"role":"backward","rel":"421263","reltags":{"name":"Marina Bay Street Circuit","type":"circuit","wikidata":"Q171390","wikipedia":"en:Marina Bay Street Circuit"}}],"meta":{}},"geometry":{"type":"LineString","coordinates":[[103.8575748,1.2897889],[103.8574821,1.2897436],[103.857456,1.2897446],[103.8573304,1.2897515],[103.8573057,1.2897529],[103.8572552,1.2897557],[103.8571045,1.2897751],[103.8569869,1.289794]]}},{"type":"Feature","id":"way/383365018","properties":{"type":"way","id":383365018,"tags":{"foot":"yes","highway":"primary","lanes":"4","maxspeed":"50","name":"Raffles Boulevard","oneway":"yes","source":"Yahoo aerial images","surface":"asphalt"},"relations":[{"role":"backward","rel":"421263","reltags":{"name":"Marina Bay Street Circuit","type":"circuit","wikidata":"Q171390","wikipedia":"en:Marina Bay Street Circuit"}}],"meta":{}},"geometry":{"type":"LineString","coordinates":[[103.8616157,1.2913406],[103.8620486,1.2913099]]}},{"type":"Feature","id":"way/383365019","properties":{"type":"way","id":383365019,"tags":{"foot":"yes","highway":"primary","lanes":"4","maxspeed":"50","name":"Raffles Boulevard","oneway":"yes","source":"Yahoo aerial images","surface":"asphalt"},"relations":[{"role":"backward","rel":"421263","reltags":{"name":"Marina Bay Street Circuit","type":"circuit","wikidata":"Q171390","wikipedia":"en:Marina Bay Street Circuit"}}],"meta":{}},"geometry":{"type":"LineString","coordinates":[[103.8613102,1.2913437],[103.8615148,1.2913404]]}},{"type":"Feature","id":"way/448084962","properties":{"type":"way","id":448084962,"tags":{"highway":"secondary","lanes":"2","lanes:backward":"1","lanes:forward":"1","maxspeed":"50","name":"Saint Andrew's Road","oneway":"no","surface":"asphalt","turn:lanes:backward":"through","turn:lanes:forward":"through"},"relations":[{"role":"","rel":"421263","reltags":{"name":"Marina Bay Street Circuit","type":"circuit","wikidata":"Q171390","wikipedia":"en:Marina Bay Street Circuit"}}],"meta":{}},"geometry":{"type":"LineString","coordinates":[[103.8516497,1.2889302],[103.8518672,1.2887628]]}},{"type":"Feature","id":"way/459186771","properties":{"type":"way","id":459186771,"tags":{"highway":"trunk","lanes":"5","maxspeed":"70","name":"Nicoll Highway","oneway":"yes","source":"Yahoo aerial images","surface":"asphalt","turn:lanes":"through|through|through;right|right|right"},"relations":[{"role":"backward","rel":"421263","reltags":{"name":"Marina Bay Street Circuit","type":"circuit","wikidata":"Q171390","wikipedia":"en:Marina Bay Street Circuit"}}],"meta":{}},"geometry":{"type":"LineString","coordinates":[[103.8552936,1.2922894],[103.8556295,1.2928507],[103.8558226,1.293172]]}},{"type":"Feature","id":"way/465064165","properties":{"type":"way","id":465064165,"tags":{"access":"private","foot":"no","highway":"raceway","name":"Marina Bay Street Circuit","oneway":"yes","raceway":"pitlane","sport":"motor","surface":"asphalt"},"relations":[{"role":"pitlane","rel":"421263","reltags":{"name":"Marina Bay Street Circuit","type":"circuit","wikidata":"Q171390","wikipedia":"en:Marina Bay Street Circuit"}}],"meta":{}},"geometry":{"type":"LineString","coordinates":[[103.8631437,1.2944915],[103.8630729,1.2945423],[103.8630206,1.294593],[103.8629382,1.2947144],[103.8628791,1.294785],[103.8628109,1.2948213],[103.8627335,1.2948393],[103.8626515,1.2948413],[103.8626109,1.2948294],[103.8625486,1.2947844]]}},{"type":"Feature","id":"way/475217889","properties":{"type":"way","id":475217889,"tags":{"highway":"secondary","lanes":"2","maxspeed":"50","name":"Saint Andrew's Road","oneway":"yes","surface":"asphalt"},"relations":[{"role":"backward","rel":"421263","reltags":{"name":"Marina Bay Street Circuit","type":"circuit","wikidata":"Q171390","wikipedia":"en:Marina Bay Street Circuit"}}],"meta":{}},"geometry":{"type":"LineString","coordinates":[[103.8516497,1.2889302],[103.8515972,1.2890226],[103.8515715,1.289087],[103.851564,1.2891325],[103.8515614,1.2891657],[103.8515607,1.2891982],[103.8515617,1.2892272],[103.8515671,1.2892805],[103.8515693,1.289307],[103.8515745,1.2893739]]}},{"type":"Feature","id":"way/479284866","properties":{"type":"way","id":479284866,"tags":{"highway":"primary","lanes":"4","maxspeed":"50","name":"Raffles Avenue","oneway":"yes","source":"aerial images","surface":"asphalt","turn:lanes":"left;through|through|through;right|right"},"relations":[{"role":"backward","rel":"421263","reltags":{"name":"Marina Bay Street Circuit","type":"circuit","wikidata":"Q171390","wikipedia":"en:Marina Bay Street Circuit"}}],"meta":{}},"geometry":{"type":"LineString","coordinates":[[103.8611245,1.2895568],[103.8610047,1.2895654]]}},{"type":"Feature","id":"way/479540200","properties":{"type":"way","id":479540200,"tags":{"busway:left":"lane","highway":"primary","lanes":"5","lanes:bus":"1","lanes:bus:conditional":"1 @ (Mo-Sa 07:30-23:00)","maxspeed":"50","name":"Raffles Boulevard","oneway":"yes","source":"Yahoo aerial images","surface":"asphalt","turn:lanes":"left;through|through|through|through|through"},"relations":[{"role":"backward","rel":"421263","reltags":{"name":"Marina Bay Street Circuit","type":"circuit","wikidata":"Q171390","wikipedia":"en:Marina Bay Street Circuit"}}],"meta":{}},"geometry":{"type":"LineString","coordinates":[[103.8585312,1.291612],[103.858703,1.2915475],[103.8587725,1.2915233],[103.8588089,1.2915103],[103.8590169,1.2914694]]}},{"type":"Feature","id":"way/479540202","properties":{"type":"way","id":479540202,"tags":{"foot":"yes","highway":"primary","lanes":"5","maxspeed":"50","name":"Raffles Boulevard","oneway":"yes","source":"Yahoo aerial images","surface":"asphalt","turn:lanes":"through|through|through|through;right|right"},"relations":[{"role":"backward","rel":"421263","reltags":{"name":"Marina Bay Street Circuit","type":"circuit","wikidata":"Q171390","wikipedia":"en:Marina Bay Street Circuit"}}],"meta":{}},"geometry":{"type":"LineString","coordinates":[[103.8601064,1.2913888],[103.8608482,1.2913598],[103.8608965,1.2913579]]}},{"type":"Feature","id":"way/479565612","properties":{"type":"way","id":479565612,"tags":{"highway":"primary","lanes":"4","maxspeed":"50","name":"Raffles Avenue","note":"Part of it estimated ???","oneway":"yes","raceway":"sometimes","source":"Yahoo aerial images","surface":"asphalt","turn:lanes":"left;through|through|through|through"},"relations":[{"role":"backward","rel":"421263","reltags":{"name":"Marina Bay Street Circuit","type":"circuit","wikidata":"Q171390","wikipedia":"en:Marina Bay Street Circuit"}}],"meta":{}},"geometry":{"type":"LineString","coordinates":[[103.8561732,1.2903202],[103.8559901,1.2904669],[103.8558094,1.2906663]]}},{"type":"Feature","id":"way/479565613","properties":{"type":"way","id":479565613,"tags":{"highway":"primary","lanes":"6","maxspeed":"50","name":"Raffles Avenue","note":"Part of it estimated ???","oneway":"yes","raceway":"sometimes","source":"Yahoo aerial images","surface":"asphalt","turn:lanes":"left|left;through|through|through|through;right|right"},"relations":[{"role":"backward","rel":"421263","reltags":{"name":"Marina Bay Street Circuit","type":"circuit","wikidata":"Q171390","wikipedia":"en:Marina Bay Street Circuit"}}],"meta":{}},"geometry":{"type":"LineString","coordinates":[[103.8558094,1.2906663],[103.8552331,1.2911273],[103.855215,1.2911447]]}},{"type":"Feature","id":"way/479565615","properties":{"type":"way","id":479565615,"tags":{"highway":"primary","lanes":"4","maxspeed":"50","name":"Stamford Road","oneway":"yes","source":"GPS & Yahoo aerial images","surface":"asphalt","turn:lanes":"through|through|through|through"},"relations":[{"role":"","rel":"421263","reltags":{"name":"Marina Bay Street Circuit","type":"circuit","wikidata":"Q171390","wikipedia":"en:Marina Bay Street Circuit"}}],"meta":{}},"geometry":{"type":"LineString","coordinates":[[103.8539248,1.2924047],[103.8536185,1.2926038]]}},{"type":"Feature","id":"way/479605911","properties":{"type":"way","id":479605911,"tags":{"foot":"no","highway":"primary","lanes":"5","maxspeed":"50","name":"Raffles Avenue","note":"Part of it estimated ???","oneway":"yes","raceway":"sometimes","source":"Yahoo aerial images","surface":"asphalt","turn:lanes":"through|through|through|through;right|right"},"relations":[{"role":"backward","rel":"421263","reltags":{"name":"Marina Bay Street Circuit","type":"circuit","wikidata":"Q171390","wikipedia":"en:Marina Bay Street Circuit"}}],"meta":{}},"geometry":{"type":"LineString","coordinates":[[103.855215,1.2911447],[103.855059,1.2912783],[103.8550077,1.291324]]}},{"type":"Feature","id":"way/479745478","properties":{"type":"way","id":479745478,"tags":{"busway:left":"lane","highway":"primary","lanes":"5","lanes:bus":"1","lanes:bus:conditional":"1 @ (Mo-Sa 07:30-23:00)","maxheight":"4.5","maxspeed":"50","name":"Raffles Boulevard","oneway":"yes","source":"Yahoo aerial images","surface":"asphalt","tunnel":"building_passage","turn:lanes":"through|through|through|through|through"},"relations":[{"role":"backward","rel":"421263","reltags":{"name":"Marina Bay Street Circuit","type":"circuit","wikidata":"Q171390","wikipedia":"en:Marina Bay Street Circuit"}}],"meta":{}},"geometry":{"type":"LineString","coordinates":[[103.8592097,1.291438],[103.859378,1.2914224]]}},{"type":"Feature","id":"way/479745479","properties":{"type":"way","id":479745479,"tags":{"busway:left":"lane","foot":"yes","highway":"primary","lanes":"6","lanes:bus":"1","lanes:bus:conditional":"1 @ (Mo-Sa 07:30-23:00)","maxspeed":"50","name":"Raffles Boulevard","oneway":"yes","source":"Yahoo aerial images","surface":"asphalt","turn:lanes":"left|through|through|through|through;right|right"},"relations":[{"role":"backward","rel":"421263","reltags":{"name":"Marina Bay Street Circuit","type":"circuit","wikidata":"Q171390","wikipedia":"en:Marina Bay Street Circuit"}}],"meta":{}},"geometry":{"type":"LineString","coordinates":[[103.859378,1.2914224],[103.8597006,1.2914101]]}},{"type":"Feature","id":"way/480247942","properties":{"type":"way","id":480247942,"tags":{"highway":"secondary","lanes":"1","maxspeed":"50","name":"Fullerton Road","oneway":"yes","surface":"asphalt","turn:lanes":"through"},"relations":[{"role":"backward","rel":"421263","reltags":{"name":"Marina Bay Street Circuit","type":"circuit","wikidata":"Q171390","wikipedia":"en:Marina Bay Street Circuit"}}],"meta":{}},"geometry":{"type":"LineString","coordinates":[[103.8525899,1.2876815],[103.8525394,1.2877159],[103.8524929,1.2877475],[103.8524451,1.2878174],[103.8524097,1.2879023],[103.8523772,1.2880957],[103.8523523,1.2882637]]}},{"type":"Feature","id":"way/480247943","properties":{"type":"way","id":480247943,"tags":{"highway":"secondary","lanes":"2","lanes:backward":"1","lanes:forward":"1","maxspeed":"50","name":"Fullerton Road","oneway":"no","source":"Yahoo aerial images","surface":"asphalt","turn:lanes:backward":"through","turn:lanes:forward":"through"},"relations":[{"role":"","rel":"421263","reltags":{"name":"Marina Bay Street Circuit","type":"circuit","wikidata":"Q171390","wikipedia":"en:Marina Bay Street Circuit"}}],"meta":{}},"geometry":{"type":"LineString","coordinates":[[103.8525899,1.2876815],[103.8526038,1.2876704],[103.8527898,1.2875108]]}},{"type":"Feature","id":"way/480250096","properties":{"type":"way","id":480250096,"tags":{"highway":"secondary","lanes":"4","maxspeed":"50","name":"Saint Andrew's Road","oneway":"yes","source":"Yahoo aerial images","surface":"asphalt","turn:lanes":"through|through|through|through"},"relations":[{"role":"backward","rel":"421263","reltags":{"name":"Marina Bay Street Circuit","type":"circuit","wikidata":"Q171390","wikipedia":"en:Marina Bay Street Circuit"}}],"meta":{}},"geometry":{"type":"LineString","coordinates":[[103.8525268,1.2910839],[103.8526354,1.2912821]]}},{"type":"Feature","id":"way/480733941","properties":{"type":"way","id":480733941,"tags":{"highway":"secondary","junction":"roundabout","lanes":"1","maxspeed":"50","name":"Fullerton Road","surface":"asphalt"},"relations":[{"role":"backward","rel":"421263","reltags":{"name":"Marina Bay Street Circuit","type":"circuit","wikidata":"Q171390","wikipedia":"en:Marina Bay Street Circuit"}}],"meta":{}},"geometry":{"type":"LineString","coordinates":[[103.8523538,1.2883751],[103.8523418,1.2884014]]}},{"type":"Feature","id":"way/545362402","properties":{"type":"way","id":545362402,"tags":{"busway:left":"lane","highway":"primary","lanes":"5","lanes:bus":"1","lanes:bus:conditional":"1 @ (Mo-Sa 07:30-23:00)","maxheight":"4.5","maxspeed":"50","name":"Raffles Boulevard","oneway":"yes","source":"Yahoo aerial images","surface":"asphalt","tunnel":"building_passage","turn:lanes":"left;through|through|through|through|through"},"relations":[{"role":"backward","rel":"421263","reltags":{"name":"Marina Bay Street Circuit","type":"circuit","wikidata":"Q171390","wikipedia":"en:Marina Bay Street Circuit"}}],"meta":{}},"geometry":{"type":"LineString","coordinates":[[103.8578896,1.291982],[103.8582436,1.2917797]]}},{"type":"Feature","id":"way/545362403","properties":{"type":"way","id":545362403,"tags":{"busway:left":"lane","highway":"primary","lanes":"5","lanes:bus":"1","lanes:bus:conditional":"1 @ (Mo-Sa 07:30-23:00)","maxspeed":"50","name":"Raffles Boulevard","oneway":"yes","source":"Yahoo aerial images","surface":"asphalt","tunnel":"building_passage","turn:lanes":"left;through|through|through|through|through"},"relations":[{"role":"backward","rel":"421263","reltags":{"name":"Marina Bay Street Circuit","type":"circuit","wikidata":"Q171390","wikipedia":"en:Marina Bay Street Circuit"}}],"meta":{}},"geometry":{"type":"LineString","coordinates":[[103.8582436,1.2917797],[103.8582587,1.2917686]]}},{"type":"Feature","id":"way/572140291","properties":{"type":"way","id":572140291,"tags":{"access":"private","foot":"no","highway":"raceway","name":"Marina Bay Street Circuit","oneway":"yes","raceway":"pitlane","sport":"motor","surface":"asphalt"},"relations":[{"role":"pitlane","rel":"421263","reltags":{"name":"Marina Bay Street Circuit","type":"circuit","wikidata":"Q171390","wikipedia":"en:Marina Bay Street Circuit"}}],"meta":{}},"geometry":{"type":"LineString","coordinates":[[103.8625486,1.2947844],[103.8624761,1.2947048],[103.8624309,1.2946376],[103.8623862,1.2945431]]}},{"type":"Feature","id":"way/581766308","properties":{"type":"way","id":581766308,"tags":{"highway":"trunk","lanes":"4","maxspeed":"70","name":"Esplanade Drive","oneway":"yes","source":"Yahoo aerial images","surface":"asphalt"},"relations":[{"role":"backward","rel":"421263","reltags":{"name":"Marina Bay Street Circuit","type":"circuit","wikidata":"Q171390","wikipedia":"en:Marina Bay Street Circuit"}}],"meta":{}},"geometry":{"type":"LineString","coordinates":[[103.8550077,1.291324],[103.8549222,1.2910827]]}},{"type":"Feature","id":"way/581942152","properties":{"type":"way","id":581942152,"tags":{"busway:left":"lane","highway":"primary","lanes":"4","lanes:bus":"1","lanes:bus:conditional":"1 @ (Mo-Sa 07:30-23:00)","maxspeed":"50","name":"Raffles Avenue","note":"Part of it estimated ???","oneway":"yes","raceway":"sometimes","source":"Yahoo aerial images","surface":"asphalt"},"relations":[{"role":"backward","rel":"421263","reltags":{"name":"Marina Bay Street Circuit","type":"circuit","wikidata":"Q171390","wikipedia":"en:Marina Bay Street Circuit"}}],"meta":{}},"geometry":{"type":"LineString","coordinates":[[103.8606117,1.2895936],[103.860338,1.289644]]}},{"type":"Feature","id":"way/584419619","properties":{"type":"way","id":584419619,"tags":{"foot":"yes","highway":"primary","lanes":"4","maxspeed":"50","name":"Raffles Boulevard","oneway":"yes","source":"Yahoo aerial images","surface":"asphalt"},"relations":[{"role":"backward","rel":"421263","reltags":{"name":"Marina Bay Street Circuit","type":"circuit","wikidata":"Q171390","wikipedia":"en:Marina Bay Street Circuit"}}],"meta":{}},"geometry":{"type":"LineString","coordinates":[[103.8610007,1.2913536],[103.861061,1.2913512],[103.8613102,1.2913437]]}},{"type":"Feature","id":"way/633311062","properties":{"type":"way","id":633311062,"tags":{"highway":"primary","lanes":"4","maxspeed":"50","name":"Raffles Avenue","note":"Part of it estimated ???","oneway":"yes","raceway":"sometimes","source":"Yahoo aerial images","surface":"asphalt","turn:lanes":"through|through|through|through"},"relations":[{"role":"backward","rel":"421263","reltags":{"name":"Marina Bay Street Circuit","type":"circuit","wikidata":"Q171390","wikipedia":"en:Marina Bay Street Circuit"}}],"meta":{}},"geometry":{"type":"LineString","coordinates":[[103.8569869,1.289794],[103.8568781,1.2898254],[103.8567861,1.2898549],[103.8567376,1.2898782],[103.8566645,1.2899135],[103.8565763,1.2899715],[103.8565472,1.2899906],[103.8564514,1.2900794],[103.8563522,1.2901714],[103.8562853,1.2902236]]}},{"type":"Feature","id":"way/633604555","properties":{"type":"way","id":633604555,"tags":{"highway":"secondary","lanes":"1","maxspeed":"50","name":"Fullerton Road","oneway":"yes","surface":"asphalt","turn:lanes":"through"},"relations":[{"role":"backward","rel":"421263","reltags":{"name":"Marina Bay Street Circuit","type":"circuit","wikidata":"Q171390","wikipedia":"en:Marina Bay Street Circuit"}}],"meta":{}},"geometry":{"type":"LineString","coordinates":[[103.8523523,1.2882637],[103.8523538,1.2883751]]}},{"type":"Feature","id":"way/633871919","properties":{"type":"way","id":633871919,"tags":{"busway:left":"lane","foot":"yes","highway":"primary","lanes":"6","lanes:bus":"1","lanes:bus:conditional":"1 @ (Mo-Sa 07:30-23:00)","maxspeed":"50","name":"Raffles Boulevard","oneway":"yes","source":"Yahoo aerial images","surface":"asphalt","turn:lanes":"left|through|through|through|through;right|right"},"relations":[{"role":"backward","rel":"421263","reltags":{"name":"Marina Bay Street Circuit","type":"circuit","wikidata":"Q171390","wikipedia":"en:Marina Bay Street Circuit"}}],"meta":{}},"geometry":{"type":"LineString","coordinates":[[103.8597006,1.2914101],[103.8600076,1.291394]]}},{"type":"Feature","id":"way/633871920","properties":{"type":"way","id":633871920,"tags":{"foot":"yes","highway":"primary","lanes":"6","maxspeed":"50","name":"Raffles Boulevard","oneway":"yes","source":"Yahoo aerial images","surface":"asphalt","turn:lanes":"left|through|through|through|through;right|right"},"relations":[{"role":"backward","rel":"421263","reltags":{"name":"Marina Bay Street Circuit","type":"circuit","wikidata":"Q171390","wikipedia":"en:Marina Bay Street Circuit"}}],"meta":{}},"geometry":{"type":"LineString","coordinates":[[103.8600076,1.291394],[103.8601064,1.2913888]]}},{"type":"Feature","id":"way/634770511","properties":{"type":"way","id":634770511,"tags":{"highway":"primary","lanes":"5","maxspeed":"50","name":"Stamford Road","oneway":"yes","source":"GPS & Yahoo aerial images","surface":"asphalt","turn:lanes":"through|through|through|through|right"},"relations":[{"role":"","rel":"421263","reltags":{"name":"Marina Bay Street Circuit","type":"circuit","wikidata":"Q171390","wikipedia":"en:Marina Bay Street Circuit"}}],"meta":{}},"geometry":{"type":"LineString","coordinates":[[103.8543182,1.2920088],[103.854231,1.2921016],[103.8539248,1.2924047]]}},{"type":"Feature","id":"way/634832601","properties":{"type":"way","id":634832601,"tags":{"highway":"primary","lanes":"4","maxspeed":"50","name":"Raffles Avenue","note":"Part of it estimated ???","oneway":"yes","raceway":"sometimes","source":"Yahoo aerial images","surface":"asphalt"},"relations":[{"role":"backward","rel":"421263","reltags":{"name":"Marina Bay Street Circuit","type":"circuit","wikidata":"Q171390","wikipedia":"en:Marina Bay Street Circuit"}}],"meta":{}},"geometry":{"type":"LineString","coordinates":[[103.8562853,1.2902236],[103.8561732,1.2903202]]}},{"type":"Feature","id":"way/635373148","properties":{"type":"way","id":635373148,"tags":{"busway:left":"lane","highway":"primary","lanes":"5","lanes:bus":"1","lanes:bus:conditional":"1 @ (Mo-Sa 07:30-23:00)","maxspeed":"50","name":"Raffles Boulevard","oneway":"yes","source":"Yahoo aerial images","surface":"asphalt","turn:lanes":"left;through|through|through|through|through"},"relations":[{"role":"backward","rel":"421263","reltags":{"name":"Marina Bay Street Circuit","type":"circuit","wikidata":"Q171390","wikipedia":"en:Marina Bay Street Circuit"}}],"meta":{}},"geometry":{"type":"LineString","coordinates":[[103.8582587,1.2917686],[103.8583109,1.2917335],[103.8585312,1.291612]]}},{"type":"Feature","id":"way/635375722","properties":{"type":"way","id":635375722,"tags":{"highway":"primary","lanes":"6","maxspeed":"50","name":"Raffles Boulevard","oneway":"yes","source":"Yahoo aerial images","surface":"asphalt","turn:lanes":"left|left;through|through|through|through|through"},"relations":[{"role":"backward","rel":"421263","reltags":{"name":"Marina Bay Street Circuit","type":"circuit","wikidata":"Q171390","wikipedia":"en:Marina Bay Street Circuit"}}],"meta":{}},"geometry":{"type":"LineString","coordinates":[[103.857176,1.2923891],[103.8572319,1.2923557]]}},{"type":"Feature","id":"way/635390734","properties":{"type":"way","id":635390734,"tags":{"highway":"trunk","lanes":"4","maxspeed":"70","name":"Esplanade Drive","oneway":"yes","source":"Yahoo aerial images","surface":"asphalt"},"relations":[{"role":"backward","rel":"421263","reltags":{"name":"Marina Bay Street Circuit","type":"circuit","wikidata":"Q171390","wikipedia":"en:Marina Bay Street Circuit"}}],"meta":{}},"geometry":{"type":"LineString","coordinates":[[103.8545091,1.2896309],[103.8544491,1.2893353],[103.8544324,1.2892532]]}},{"type":"Feature","id":"way/647084783","properties":{"type":"way","id":647084783,"tags":{"highway":"secondary","lanes":"4","maxspeed":"50","name":"Saint Andrew's Road","oneway":"yes","source":"Yahoo aerial images","surface":"asphalt","turn:lanes":"left|through|through|through"},"relations":[{"role":"backward","rel":"421263","reltags":{"name":"Marina Bay Street Circuit","type":"circuit","wikidata":"Q171390","wikipedia":"en:Marina Bay Street Circuit"}}],"meta":{}},"geometry":{"type":"LineString","coordinates":[[103.8530651,1.2920661],[103.853252,1.2923897]]}},{"type":"Feature","id":"way/649336906","properties":{"type":"way","id":649336906,"tags":{"highway":"primary","lanes":"6","maxspeed":"50","name":"Raffles Boulevard","oneway":"yes","source":"Yahoo aerial images","surface":"asphalt","turn:lanes":"left|left;through|through|through|through|through"},"relations":[{"role":"backward","rel":"421263","reltags":{"name":"Marina Bay Street Circuit","type":"circuit","wikidata":"Q171390","wikipedia":"en:Marina Bay Street Circuit"}}],"meta":{}},"geometry":{"type":"LineString","coordinates":[[103.8570723,1.2924516],[103.857176,1.2923891]]}},{"type":"Feature","id":"way/649520780","properties":{"type":"way","id":649520780,"tags":{"highway":"secondary","lanes":"4","maxspeed":"50","name":"Saint Andrew's Road","oneway":"yes","source":"Yahoo aerial images","surface":"asphalt"},"relations":[{"role":"backward","rel":"421263","reltags":{"name":"Marina Bay Street Circuit","type":"circuit","wikidata":"Q171390","wikipedia":"en:Marina Bay Street Circuit"}}],"meta":{}},"geometry":{"type":"LineString","coordinates":[[103.8526354,1.2912821],[103.8530651,1.2920661]]}},{"type":"Feature","id":"way/649944021","properties":{"type":"way","id":649944021,"tags":{"busway:left":"lane","highway":"primary","lanes":"5","lanes:bus":"1","lanes:bus:conditional":"1 @ (Mo-Sa 07:30-23:00)","maxspeed":"50","name":"Raffles Boulevard","oneway":"yes","source":"Yahoo aerial images","surface":"asphalt","turn:lanes":"through|through|through|through|through"},"relations":[{"role":"backward","rel":"421263","reltags":{"name":"Marina Bay Street Circuit","type":"circuit","wikidata":"Q171390","wikipedia":"en:Marina Bay Street Circuit"}}],"meta":{}},"geometry":{"type":"LineString","coordinates":[[103.8590169,1.2914694],[103.8591183,1.2914525],[103.8592097,1.291438]]}},{"type":"Feature","id":"way/650084964","properties":{"type":"way","id":650084964,"tags":{"highway":"primary","lanes":"5","maxspeed":"50","name":"Stamford Road","oneway":"yes","source":"GPS & Yahoo aerial images","surface":"asphalt","turn:lanes":"through|through|through|through|right"},"relations":[{"role":"","rel":"421263","reltags":{"name":"Marina Bay Street Circuit","type":"circuit","wikidata":"Q171390","wikipedia":"en:Marina Bay Street Circuit"}}],"meta":{}},"geometry":{"type":"LineString","coordinates":[[103.854467,1.2918487],[103.8543182,1.2920088]]}},{"type":"Feature","id":"way/654223306","properties":{"type":"way","id":654223306,"tags":{"highway":"primary","lanes":"2","maxspeed":"60","name":"Republic Boulevard","oneway":"yes","source":"Yahoo aerial images","surface":"asphalt"},"relations":[{"role":"backward","rel":"421263","reltags":{"name":"Marina Bay Street Circuit","type":"circuit","wikidata":"Q171390","wikipedia":"en:Marina Bay Street Circuit"}}],"meta":{}},"geometry":{"type":"LineString","coordinates":[[103.862531,1.2913032],[103.8626721,1.2913649],[103.862765,1.2914334],[103.8628065,1.2914723],[103.8628486,1.2915327]]}},{"type":"Feature","id":"way/655019701","properties":{"type":"way","id":655019701,"tags":{"highway":"secondary","lanes":"2","lanes:backward":"1","lanes:forward":"1","maxspeed":"50","name":"Saint Andrew's Road","oneway":"no","surface":"asphalt","turn:lanes:backward":"through;right","turn:lanes:forward":"through"},"relations":[{"role":"","rel":"421263","reltags":{"name":"Marina Bay Street Circuit","type":"circuit","wikidata":"Q171390","wikipedia":"en:Marina Bay Street Circuit"}}],"meta":{}},"geometry":{"type":"LineString","coordinates":[[103.8519372,1.2887089],[103.8519961,1.2886699]]}},{"type":"Feature","id":"way/672222982","properties":{"type":"way","id":672222982,"tags":{"highway":"primary","lanes":"2","maxspeed":"60","name":"Republic Boulevard","oneway":"yes","source":"Yahoo aerial images","surface":"asphalt","turn:lanes":"left|left"},"relations":[{"role":"backward","rel":"421263","reltags":{"name":"Marina Bay Street Circuit","type":"circuit","wikidata":"Q171390","wikipedia":"en:Marina Bay Street Circuit"}}],"meta":{}},"geometry":{"type":"LineString","coordinates":[[103.862347,1.2912552],[103.862531,1.2913032]]}},{"type":"Feature","id":"way/684544691","properties":{"type":"way","id":684544691,"tags":{"highway":"secondary","lanes":"2","lanes:backward":"1","lanes:forward":"1","maxspeed":"50","name":"Saint Andrew's Road","oneway":"no","surface":"asphalt","turn:lanes:backward":"through;right","turn:lanes:forward":"through"},"relations":[{"role":"","rel":"421263","reltags":{"name":"Marina Bay Street Circuit","type":"circuit","wikidata":"Q171390","wikipedia":"en:Marina Bay Street Circuit"}}],"meta":{}},"geometry":{"type":"LineString","coordinates":[[103.8518672,1.2887628],[103.8519372,1.2887089]]}},{"type":"Feature","id":"way/686323967","properties":{"type":"way","id":686323967,"tags":{"highway":"primary","lanes":"2","maxspeed":"60","name":"Republic Boulevard","oneway":"yes","source":"Yahoo aerial images","surface":"asphalt","turn:lanes":"through|through"},"relations":[{"role":"backward","rel":"421263","reltags":{"name":"Marina Bay Street Circuit","type":"circuit","wikidata":"Q171390","wikipedia":"en:Marina Bay Street Circuit"}}],"meta":{}},"geometry":{"type":"LineString","coordinates":[[103.8623708,1.2943413],[103.8623818,1.2944856],[103.8623862,1.2945431]]}},{"type":"Feature","id":"way/686323968","properties":{"type":"way","id":686323968,"tags":{"highway":"primary","image":"https://images.mapillary.com/AYKz9KrqqwYJuXU8KLXNuA/thumb-2048.jpg","lanes":"2","mapillary":"https://www.mapillary.com/map/im/AYKz9KrqqwYJuXU8KLXNuA","maxspeed":"60","name":"Republic Boulevard","oneway":"yes","source":"Yahoo aerial images","surface":"asphalt","turn:lanes":"through|through"},"relations":[{"role":"backward","rel":"421263","reltags":{"name":"Marina Bay Street Circuit","type":"circuit","wikidata":"Q171390","wikipedia":"en:Marina Bay Street Circuit"}}],"meta":{}},"geometry":{"type":"LineString","coordinates":[[103.8623795,1.2937185],[103.8623658,1.2937976]]}},{"type":"Feature","id":"way/686335799","properties":{"type":"way","id":686335799,"tags":{"highway":"primary","image":"https://images.mapillary.com/AYKz9KrqqwYJuXU8KLXNuA/thumb-2048.jpg","lanes":"2","mapillary":"https://www.mapillary.com/map/im/AYKz9KrqqwYJuXU8KLXNuA","maxspeed":"60","name":"Republic Boulevard","oneway":"yes","source":"Yahoo aerial images","surface":"asphalt","turn:lanes":"through|through"},"relations":[{"role":"backward","rel":"421263","reltags":{"name":"Marina Bay Street Circuit","type":"circuit","wikidata":"Q171390","wikipedia":"en:Marina Bay Street Circuit"}}],"meta":{}},"geometry":{"type":"LineString","coordinates":[[103.8623658,1.2937976],[103.862354,1.293866],[103.862346,1.2940148],[103.8623708,1.2943413]]}},{"type":"Feature","id":"way/686335800","properties":{"type":"way","id":686335800,"tags":{"highway":"primary","image":"https://images.mapillary.com/o72ouKUNKmshV92TGsV5zw/thumb-2048.jpg","lanes":"2","mapillary":"https://www.mapillary.com/map/im/o72ouKUNKmshV92TGsV5zw","maxspeed":"60","name":"Republic Boulevard","oneway":"yes","source":"Yahoo aerial images","surface":"asphalt","turn:lanes":"through|through"},"relations":[{"role":"backward","rel":"421263","reltags":{"name":"Marina Bay Street Circuit","type":"circuit","wikidata":"Q171390","wikipedia":"en:Marina Bay Street Circuit"}}],"meta":{}},"geometry":{"type":"LineString","coordinates":[[103.8625264,1.2933616],[103.8624291,1.2935764],[103.8623795,1.2937185]]}},{"type":"Feature","id":"way/686335806","properties":{"type":"way","id":686335806,"tags":{"access":"private","highway":"raceway","image":"https://images.mapillary.com/8ANa6_FW5wLK1ixdGUS1MQ/thumb-2048.jpg","mapillary":"https://www.mapillary.com/map/im/8ANa6_FW5wLK1ixdGUS1MQ","name":"Marina Bay Street Circuit","oneway":"yes","surface":"asphalt"},"relations":[{"role":"backward","rel":"421263","reltags":{"name":"Marina Bay Street Circuit","type":"circuit","wikidata":"Q171390","wikipedia":"en:Marina Bay Street Circuit"}}],"meta":{}},"geometry":{"type":"LineString","coordinates":[[103.8619413,1.2887895],[103.8627747,1.2887046],[103.8628407,1.2887014]]}},{"type":"Feature","id":"way/686335807","properties":{"type":"way","id":686335807,"tags":{"access":"private","highway":"raceway","name":"Marina Bay Street Circuit","oneway":"yes","surface":"asphalt"},"relations":[{"role":"backward","rel":"421263","reltags":{"name":"Marina Bay Street Circuit","type":"circuit","wikidata":"Q171390","wikipedia":"en:Marina Bay Street Circuit"}}],"meta":{}},"geometry":{"type":"LineString","coordinates":[[103.8628407,1.2887014],[103.8635476,1.2886748],[103.8638731,1.2886587],[103.8639349,1.2886633],[103.8639966,1.2886823],[103.8640432,1.2887103],[103.8640787,1.2887606],[103.8644684,1.2893684],[103.8644928,1.289426],[103.8645045,1.2895026],[103.8644918,1.2896455],[103.8642117,1.2916929],[103.8640608,1.2926489],[103.8640375,1.2928871],[103.8640305,1.2931935],[103.864041,1.2937056],[103.8640224,1.293853],[103.8639949,1.2939935],[103.8639217,1.2942405],[103.8638941,1.2943034],[103.8638678,1.294336],[103.8638198,1.2943562],[103.8637208,1.2943578],[103.8636225,1.2943588],[103.8635511,1.2943667],[103.8634178,1.2943961],[103.8632984,1.2944297],[103.8631437,1.2944915]]}},{"type":"Feature","id":"way/723073393","properties":{"type":"way","id":723073393,"tags":{"busway:left":"lane","highway":"primary","lanes":"5","lanes:bus":"1","lanes:bus:conditional":"1 @ (Mo-Sa 07:30-23:00)","maxspeed":"50","name":"Raffles Boulevard","oneway":"yes","source":"Yahoo aerial images","surface":"asphalt","turn:lanes":"through|through|through|through|through"},"relations":[{"role":"backward","rel":"421263","reltags":{"name":"Marina Bay Street Circuit","type":"circuit","wikidata":"Q171390","wikipedia":"en:Marina Bay Street Circuit"}}],"meta":{}},"geometry":{"type":"LineString","coordinates":[[103.8578775,1.2919894],[103.8578896,1.291982]]}},{"type":"Feature","id":"node/172510077","properties":{"type":"node","id":"172510077","tags":{"highway":"traffic_signals"},"relations":[],"meta":{}},"geometry":{"type":"Point","coordinates":[103.8558226,1.293172]}},{"type":"Feature","id":"node/232279092","properties":{"type":"node","id":"232279092","tags":{"highway":"traffic_signals"},"relations":[],"meta":{}},"geometry":{"type":"Point","coordinates":[103.8524294,1.2909086]}},{"type":"Feature","id":"node/232353226","properties":{"type":"node","id":"232353226","tags":{"highway":"traffic_signals","traffic_signals":"signal"},"relations":[],"meta":{}},"geometry":{"type":"Point","coordinates":[103.8536185,1.2926038]}},{"type":"Feature","id":"node/233497179","properties":{"type":"node","id":"233497179","tags":{"highway":"traffic_signals"},"relations":[],"meta":{}},"geometry":{"type":"Point","coordinates":[103.8559769,1.2930831]}},{"type":"Feature","id":"node/233879421","properties":{"type":"node","id":"233879421","tags":{"highway":"traffic_signals"},"relations":[],"meta":{}},"geometry":{"type":"Point","coordinates":[103.8550077,1.291324]}},{"type":"Feature","id":"node/233879466","properties":{"type":"node","id":"233879466","tags":{"highway":"traffic_signals"},"relations":[],"meta":{}},"geometry":{"type":"Point","coordinates":[103.8563522,1.2901714]}},{"type":"Feature","id":"node/233879603","properties":{"type":"node","id":"233879603","tags":{"highway":"traffic_signals"},"relations":[],"meta":{}},"geometry":{"type":"Point","coordinates":[103.8610047,1.2895654]}},{"type":"Feature","id":"node/233879753","properties":{"type":"node","id":"233879753","tags":{"highway":"traffic_signals"},"relations":[],"meta":{}},"geometry":{"type":"Point","coordinates":[103.8548655,1.2914505]}},{"type":"Feature","id":"node/233879872","properties":{"type":"node","id":"233879872","tags":{"highway":"traffic_signals"},"relations":[],"meta":{}},"geometry":{"type":"Point","coordinates":[103.8608965,1.2913579]}},{"type":"Feature","id":"node/233879899","properties":{"type":"node","id":"233879899","tags":{"highway":"traffic_signals"},"relations":[],"meta":{}},"geometry":{"type":"Point","coordinates":[103.8610007,1.2913536]}},{"type":"Feature","id":"node/237012269","properties":{"type":"node","id":"237012269","tags":{"highway":"traffic_signals"},"relations":[],"meta":{}},"geometry":{"type":"Point","coordinates":[103.8538963,1.2864287]}},{"type":"Feature","id":"node/237054576","properties":{"type":"node","id":"237054576","tags":{"highway":"traffic_signals"},"relations":[],"meta":{}},"geometry":{"type":"Point","coordinates":[103.8538728,1.286314]}},{"type":"Feature","id":"node/237054768","properties":{"type":"node","id":"237054768","tags":{"highway":"traffic_signals"},"relations":[],"meta":{}},"geometry":{"type":"Point","coordinates":[103.8537113,1.2863939]}},{"type":"Feature","id":"node/479983003","properties":{"type":"node","id":"479983003","tags":{"highway":"traffic_signals"},"relations":[],"meta":{}},"geometry":{"type":"Point","coordinates":[103.8609024,1.2895727]}},{"type":"Feature","id":"node/634071195","properties":{"type":"node","id":"634071195","tags":{"crossing":"traffic_signals","highway":"crossing"},"relations":[],"meta":{}},"geometry":{"type":"Point","coordinates":[103.8611245,1.2895568]}},{"type":"Feature","id":"node/1764796980","properties":{"type":"node","id":"1764796980","tags":{"highway":"crossing"},"relations":[],"meta":{}},"geometry":{"type":"Point","coordinates":[103.8562853,1.2902236]}},{"type":"Feature","id":"node/2466494350","properties":{"type":"node","id":"2466494350","tags":{"highway":"crossing"},"relations":[],"meta":{}},"geometry":{"type":"Point","coordinates":[103.8539121,1.2865277]}},{"type":"Feature","id":"node/2619488287","properties":{"type":"node","id":"2619488287","tags":{"barrier":"yes"},"relations":[],"meta":{}},"geometry":{"type":"Point","coordinates":[103.8598983,1.2895339]}},{"type":"Feature","id":"node/3010901912","properties":{"type":"node","id":"3010901912","tags":{"traffic_calming":"island"},"relations":[],"meta":{}},"geometry":{"type":"Point","coordinates":[103.8516497,1.2889302]}},{"type":"Feature","id":"node/3076643611","properties":{"type":"node","id":"3076643611","tags":{"barrier":"yes"},"relations":[],"meta":{}},"geometry":{"type":"Point","coordinates":[103.8612069,1.2894944]}},{"type":"Feature","id":"node/3076644034","properties":{"type":"node","id":"3076644034","tags":{"barrier":"yes"},"relations":[],"meta":{}},"geometry":{"type":"Point","coordinates":[103.8577675,1.2896964]}},{"type":"Feature","id":"node/4281759834","properties":{"type":"node","id":"4281759834","tags":{"race course":"start_end"},"relations":[],"meta":{}},"geometry":{"type":"Point","coordinates":[103.8642117,1.2916929]}},{"type":"Feature","id":"node/4689967578","properties":{"type":"node","id":"4689967578","tags":{"crossing":"traffic_signals","highway":"crossing","kerb":"lowered","tactile_paving":"yes"},"relations":[],"meta":{}},"geometry":{"type":"Point","coordinates":[103.8523289,1.2907304]}},{"type":"Feature","id":"node/5136090633","properties":{"type":"node","id":"5136090633","tags":{"bus":"yes","public_transport":"stop_position"},"relations":[],"meta":{}},"geometry":{"type":"Point","coordinates":[103.8615148,1.2913404]}},{"type":"Feature","id":"node/5864342563","properties":{"type":"node","id":"5864342563","tags":{"crossing":"traffic_signals","highway":"crossing"},"relations":[],"meta":{}},"geometry":{"type":"Point","coordinates":[103.8608353,1.2895775]}},{"type":"Feature","id":"node/5864342578","properties":{"type":"node","id":"5864342578","tags":{"crossing":"traffic_signals","highway":"crossing"},"relations":[],"meta":{}},"geometry":{"type":"Point","coordinates":[103.8608482,1.2913598]}},{"type":"Feature","id":"node/5864342580","properties":{"type":"node","id":"5864342580","tags":{"crossing":"traffic_signals","highway":"crossing"},"relations":[],"meta":{}},"geometry":{"type":"Point","coordinates":[103.861061,1.2913512]}},{"type":"Feature","id":"node/6211094295","properties":{"type":"node","id":"6211094295","tags":{"highway":"crossing"},"relations":[],"meta":{}},"geometry":{"type":"Point","coordinates":[103.8536294,1.2864949]}}]}
